{"type":"FeatureCollection","crs":{"type":"name","properties":{"name":"EPSG:4326"}},"features":[{"type":"Feature","id":69,"geometry":{"type":"Point","coordinates":[-97.736220691166,30.2520972766668]},"properties":{"OBJECTID":69,"LOCAL_ID":"S132","DIST_NM":"Austin","DIST_NBR":14,"CNTY_NM":"Travis","CNTY_NBR":227,"ON_ROAD":"IH0035","CATEGORY":"PERM","ACTIVE":0,"COLLECTION_TYPE":"HD Radar Length Based Classification","OPERATION_STATUS":"Inactive - Long Term","LATITUDE":30.252102,"LONGITUDE":-97.736216,"VOLUME":"INACTIVE","WIM":"NO","CLASSIFICATION":"INACTIVE","WAVETRONIX":"INACTIVE","LOCATION_DESCRIPTION":"At Lady Bird Lake Bridge, Austin","EQUIPMENT_TYPE":"HD RADAR","INSTALLATION_TYPE":"ROADSIDE","TRAFFIC_DATA_TYPE":"HOURLY VOLUME","LABEL":"CONTINUOUS CLASS - INACTIVE"}},{"type":"Feature","id":70,"geometry":{"type":"Point","coordinates":[-97.7363666869836,30.2527792794825]},"properties":{"OBJECTID":70,"LOCAL_ID":"S132ML","DIST_NM":"Austin","DIST_NBR":14,"CNTY_NM":"Travis","CNTY_NBR":227,"ON_ROAD":"IH0035","CATEGORY":"PERM","ACTIVE":1,"COLLECTION_TYPE":"HD Radar Length Based Classification","OPERATION_STATUS":"Active","LATITUDE":30.252784,"LONGITUDE":-97.736362,"VOLUME":"ACTIVE","WIM":"NO","CLASSIFICATION":"ACTIVE","WAVETRONIX":"ACTIVE","LOCATION_DESCRIPTION":"At Lady Bird Lake Bridge, Austin","EQUIPMENT_TYPE":"HD RADAR","INSTALLATION_TYPE":"ROADSIDE","TRAFFIC_DATA_TYPE":"HOURLY VOLUME","LABEL":"CONTINUOUS CLASS - ACTIVE"}},{"type":"Feature","id":140,"geometry":{"type":"Point","coordinates":[-97.7574073592661,30.3091185038514]},"properties":{"OBJECTID":140,"LOCAL_ID":"S209","DIST_NM":"Austin","DIST_NBR":14,"CNTY_NM":"Travis","CNTY_NBR":227,"ON_ROAD":"SL0001","CATEGORY":"PERM","ACTIVE":1,"COLLECTION_TYPE":"Induction Loop Volume","OPERATION_STATUS":"Active","LATITUDE":30.309123,"LONGITUDE":-97.757403,"VOLUME":"ACTIVE","WIM":"NO","CLASSIFICATION":"NO","WAVETRONIX":"NO","LOCATION_DESCRIPTION":"At 35th St, Austin","EQUIPMENT_TYPE":"INDUCTION LOOP","INSTALLATION_TYPE":"IN ROAD","TRAFFIC_DATA_TYPE":"HOURLY CLASS","LABEL":"CONTINUOUS VOLUME - ACTIVE"}}]}