{"type":"FeatureCollection","crs":{"type":"name","properties":{"name":"EPSG:4326"}},"features":[{"type":"Feature","id":64,"geometry":{"type":"Point","coordinates":[-96.8361137636962,32.8045291733329]},"properties":{"OBJECTID":64,"LOCAL_ID":"S126","DIST_NM":"Dallas","DIST_NBR":18,"CNTY_NM":"Dallas","CNTY_NBR":57,"ON_ROAD":"IH0035E","CATEGORY":"PERM","ACTIVE":1,"COLLECTION_TYPE":"HD Radar Length Based Classification","OPERATION_STATUS":"Active","LATITUDE":32.804531,"LONGITUDE":-96.836109,"VOLUME":"ACTIVE","WIM":"NO","CLASSIFICATION":"ACTIVE","WAVETRONIX":"ACTIVE","LOCATION_DESCRIPTION":"0.9 mi. S of Inwood Rd, Dallas","EQUIPMENT_TYPE":"HD RADAR","INSTALLATION_TYPE":"ROADSIDE","TRAFFIC_DATA_TYPE":"HOURLY VOLUME","LABEL":"CONTINUOUS CLASS - ACTIVE"}}]}