{"type":"FeatureCollection","crs":{"type":"name","properties":{"name":"EPSG:4326"}},"features":[{"type":"Feature","id":90,"geometry":{"type":"Point","coordinates":[-95.3877832105542,29.8140059548264]},"properties":{"OBJECTID":90,"LOCAL_ID":"S157","DIST_NM":"Houston","DIST_NBR":12,"CNTY_NM":"Harris","CNTY_NBR":102,"ON_ROAD":"IH0610","CATEGORY":"PERM","ACTIVE":1,"COLLECTION_TYPE":"HD Radar Length Based Classification","OPERATION_STATUS":"Active","LATITUDE":29.81401,"LONGITUDE":-95.387778,"VOLUME":"ACTIVE","WIM":"NO","CLASSIFICATION":"ACTIVE","WAVETRONIX":"ACTIVE","LOCATION_DESCRIPTION":"0.7 mi. W of IH 45 (N jct.), Houston","EQUIPMENT_TYPE":"HD RADAR","INSTALLATION_TYPE":"ROADSIDE","TRAFFIC_DATA_TYPE":"HOURLY VOLUME","LABEL":"CONTINUOUS CLASS - ACTIVE"}},{"type":"Feature","id":99,"geometry":{"type":"Point","coordinates":[-95.3940132520969,29.776619982787]},"properties":{"OBJECTID":99,"LOCAL_ID":"S165","DIST_NM":"Houston","DIST_NBR":12,"CNTY_NM":"Harris","CNTY_NBR":102,"ON_ROAD":"IH0010","CATEGORY":"PERM","ACTIVE":1,"COLLECTION_TYPE":"HD Radar Length Based Classification","OPERATION_STATUS":"Active","LATITUDE":29.776624,"LONGITUDE":-95.394008,"VOLUME":"ACTIVE","WIM":"NO","CLASSIFICATION":"ACTIVE","WAVETRONIX":"ACTIVE","LOCATION_DESCRIPTION":"0.3 mi. W of Studemont St, Houston","EQUIPMENT_TYPE":"HD RADAR","INSTALLATION_TYPE":"ROADSIDE","TRAFFIC_DATA_TYPE":"HOURLY VOLUME","LABEL":"CONTINUOUS CLASS - ACTIVE"}}]}